SENTINEL-6A             
1 46984U 20086A   26198.06664197 -.00000042  00000+0  84161-4 0  9992
2 46984  66.0412  72.9935 0007777 269.7294  90.2830 12.80930174264159
SENTINEL-6B             
1 66514U 25264A   26198.06698990 -.00000041  00000+0  88133-4 0  9996
2 66514  66.0412  73.1188 0007840 268.5819  91.4298 12.80930176 30990
